<?xml version="1.0" encoding="UTF-8"?>
<ndm xmlns:xsi="http://www.w3.org/2001/XMLSchema-instance" xsi:noNamespaceSchemaLocation="https://sanaregistry.org/r/ndmxml_unqualified/ndmxml-2.0.0-master-2.0.xsd">
<omm id="CCSDS_OMM_VERS" version="2.0">
<header><CREATION_DATE/><ORIGINATOR/></header><body><segment><metadata><OBJECT_NAME>ONEWEB-0403</OBJECT_NAME><OBJECT_ID>2021-132Q</OBJECT_ID><CENTER_NAME>EARTH</CENTER_NAME><REF_FRAME>TEME</REF_FRAME><TIME_SYSTEM>UTC</TIME_SYSTEM><MEAN_ELEMENT_THEORY>SGP4</MEAN_ELEMENT_THEORY></metadata><data><meanElements><EPOCH>2024-10-18T11:37:16.896576</EPOCH><MEAN_MOTION>13.18688532</MEAN_MOTION><ECCENTRICITY>.0001454</ECCENTRICITY><INCLINATION>87.9053</INCLINATION><RA_OF_ASC_NODE>96.2001</RA_OF_ASC_NODE><ARG_OF_PERICENTER>91.7020</ARG_OF_PERICENTER><MEAN_ANOMALY>268.4279</MEAN_ANOMALY></meanElements><tleParameters><EPHEMERIS_TYPE>0</EPHEMERIS_TYPE><CLASSIFICATION_TYPE>U</CLASSIFICATION_TYPE><NORAD_CAT_ID>50483</NORAD_CAT_ID><ELEMENT_SET_NO>999</ELEMENT_SET_NO><REV_AT_EPOCH>14291</REV_AT_EPOCH><BSTAR>.21339E-3</BSTAR><MEAN_MOTION_DOT>.97E-6</MEAN_MOTION_DOT><MEAN_MOTION_DDOT>0</MEAN_MOTION_DDOT></tleParameters></data></segment></body></omm>
<omm id="CCSDS_OMM_VERS" version="2.0">
<header><CREATION_DATE/><ORIGINATOR/></header><body><segment><metadata><OBJECT_NAME>ONEWEB-0404</OBJECT_NAME><OBJECT_ID>2021-132R</OBJECT_ID><CENTER_NAME>EARTH</CENTER_NAME><REF_FRAME>TEME</REF_FRAME><TIME_SYSTEM>UTC</TIME_SYSTEM><MEAN_ELEMENT_THEORY>SGP4</MEAN_ELEMENT_THEORY></metadata><data><meanElements><EPOCH>2024-10-18T02:03:06.337728</EPOCH><MEAN_MOTION>13.11420125</MEAN_MOTION><ECCENTRICITY>.0001141</ECCENTRICITY><INCLINATION>87.8916</INCLINATION><RA_OF_ASC_NODE>142.0074</RA_OF_ASC_NODE><ARG_OF_PERICENTER>80.4326</ARG_OF_PERICENTER><MEAN_ANOMALY>279.6931</MEAN_ANOMALY></meanElements><tleParameters><EPHEMERIS_TYPE>0</EPHEMERIS_TYPE><CLASSIFICATION_TYPE>U</CLASSIFICATION_TYPE><NORAD_CAT_ID>50484</NORAD_CAT_ID><ELEMENT_SET_NO>999</ELEMENT_SET_NO><REV_AT_EPOCH>13739</REV_AT_EPOCH><BSTAR>-.12223E-2</BSTAR><MEAN_MOTION_DOT>-.421E-5</MEAN_MOTION_DOT><MEAN_MOTION_DDOT>0</MEAN_MOTION_DDOT></tleParameters></data></segment></body></omm>
<omm id="CCSDS_OMM_VERS" version="2.0">
<header><CREATION_DATE/><ORIGINATOR/></header><body><segment><metadata><OBJECT_NAME>ONEWEB-0405</OBJECT_NAME><OBJECT_ID>2021-132S</OBJECT_ID><CENTER_NAME>EARTH</CENTER_NAME><REF_FRAME>TEME</REF_FRAME><TIME_SYSTEM>UTC</TIME_SYSTEM><MEAN_ELEMENT_THEORY>SGP4</MEAN_ELEMENT_THEORY></metadata><data><meanElements><EPOCH>2024-10-18T10:10:44.962464</EPOCH><MEAN_MOTION>13.18688460</MEAN_MOTION><ECCENTRICITY>.000173</ECCENTRICITY><INCLINATION>87.9055</INCLINATION><RA_OF_ASC_NODE>96.2022</RA_OF_ASC_NODE><ARG_OF_PERICENTER>105.2012</ARG_OF_PERICENTER><MEAN_ANOMALY>254.9311</MEAN_ANOMALY></meanElements><tleParameters><EPHEMERIS_TYPE>0</EPHEMERIS_TYPE><CLASSIFICATION_TYPE>U</CLASSIFICATION_TYPE><NORAD_CAT_ID>50485</NORAD_CAT_ID><ELEMENT_SET_NO>999</ELEMENT_SET_NO><REV_AT_EPOCH>14331</REV_AT_EPOCH><BSTAR>.27224E-3</BSTAR><MEAN_MOTION_DOT>.12E-5</MEAN_MOTION_DOT><MEAN_MOTION_DDOT>0</MEAN_MOTION_DDOT></tleParameters></data></segment></body></omm>
<omm id="CCSDS_OMM_VERS" version="2.0">
<header><CREATION_DATE/><ORIGINATOR/></header><body><segment><metadata><OBJECT_NAME>ONEWEB-0406</OBJECT_NAME><OBJECT_ID>2021-132T</OBJECT_ID><CENTER_NAME>EARTH</CENTER_NAME><REF_FRAME>TEME</REF_FRAME><TIME_SYSTEM>UTC</TIME_SYSTEM><MEAN_ELEMENT_THEORY>SGP4</MEAN_ELEMENT_THEORY></metadata><data><meanElements><EPOCH>2024-10-17T17:31:28.130880</EPOCH><MEAN_MOTION>13.18687773</MEAN_MOTION><ECCENTRICITY>.0001166</ECCENTRICITY><INCLINATION>87.9057</INCLINATION><RA_OF_ASC_NODE>96.3552</RA_OF_ASC_NODE><ARG_OF_PERICENTER>68.9931</ARG_OF_PERICENTER><MEAN_ANOMALY>291.1325</MEAN_ANOMALY></meanElements><tleParameters><EPHEMERIS_TYPE>0</EPHEMERIS_TYPE><CLASSIFICATION_TYPE>U</CLASSIFICATION_TYPE><NORAD_CAT_ID>50486</NORAD_CAT_ID><ELEMENT_SET_NO>999</ELEMENT_SET_NO><REV_AT_EPOCH>14156</REV_AT_EPOCH><BSTAR>.11887E-3</BSTAR><MEAN_MOTION_DOT>.6E-6</MEAN_MOTION_DOT><MEAN_MOTION_DDOT>0</MEAN_MOTION_DDOT></tleParameters></data></segment></body></omm>
<omm id="CCSDS_OMM_VERS" version="2.0">
<header><CREATION_DATE/><ORIGINATOR/></header><body><segment><metadata><OBJECT_NAME>ONEWEB-0407</OBJECT_NAME><OBJECT_ID>2021-132U</OBJECT_ID><CENTER_NAME>EARTH</CENTER_NAME><REF_FRAME>TEME</REF_FRAME><TIME_SYSTEM>UTC</TIME_SYSTEM><MEAN_ELEMENT_THEORY>SGP4</MEAN_ELEMENT_THEORY></metadata><data><meanElements><EPOCH>2024-10-17T17:22:20.995104</EPOCH><MEAN_MOTION>13.18687518</MEAN_MOTION><ECCENTRICITY>.0001583</ECCENTRICITY><INCLINATION>87.9053</INCLINATION><RA_OF_ASC_NODE>96.3527</RA_OF_ASC_NODE><ARG_OF_PERICENTER>98.6597</ARG_OF_PERICENTER><MEAN_ANOMALY>261.4714</MEAN_ANOMALY></meanElements><tleParameters><EPHEMERIS_TYPE>0</EPHEMERIS_TYPE><CLASSIFICATION_TYPE>U</CLASSIFICATION_TYPE><NORAD_CAT_ID>50487</NORAD_CAT_ID><ELEMENT_SET_NO>999</ELEMENT_SET_NO><REV_AT_EPOCH>14150</REV_AT_EPOCH><BSTAR>.10102E-3</BSTAR><MEAN_MOTION_DOT>.53E-6</MEAN_MOTION_DOT><MEAN_MOTION_DDOT>0</MEAN_MOTION_DDOT></tleParameters></data></segment></body></omm>
<omm id="CCSDS_OMM_VERS" version="2.0">
<header><CREATION_DATE/><ORIGINATOR/></header><body><segment><metadata><OBJECT_NAME>ONEWEB-0409</OBJECT_NAME><OBJECT_ID>2021-132V</OBJECT_ID><CENTER_NAME>EARTH</CENTER_NAME><REF_FRAME>TEME</REF_FRAME><TIME_SYSTEM>UTC</TIME_SYSTEM><MEAN_ELEMENT_THEORY>SGP4</MEAN_ELEMENT_THEORY></metadata><data><meanElements><EPOCH>2024-10-18T07:30:16.353792</EPOCH><MEAN_MOTION>13.11417679</MEAN_MOTION><ECCENTRICITY>.0001376</ECCENTRICITY><INCLINATION>87.8910</INCLINATION><RA_OF_ASC_NODE>141.9479</RA_OF_ASC_NODE><ARG_OF_PERICENTER>70.4426</ARG_OF_PERICENTER><MEAN_ANOMALY>289.6850</MEAN_ANOMALY></meanElements><tleParameters><EPHEMERIS_TYPE>0</EPHEMERIS_TYPE><CLASSIFICATION_TYPE>U</CLASSIFICATION_TYPE><NORAD_CAT_ID>50488</NORAD_CAT_ID><ELEMENT_SET_NO>999</ELEMENT_SET_NO><REV_AT_EPOCH>13732</REV_AT_EPOCH><BSTAR>-.13587E-2</BSTAR><MEAN_MOTION_DOT>-.469E-5</MEAN_MOTION_DOT><MEAN_MOTION_DDOT>0</MEAN_MOTION_DDOT></tleParameters></data></segment></body></omm>
<omm id="CCSDS_OMM_VERS" version="2.0">
<header><CREATION_DATE/><ORIGINATOR/></header><body><segment><metadata><OBJECT_NAME>ONEWEB-0412</OBJECT_NAME><OBJECT_ID>2021-132W</OBJECT_ID><CENTER_NAME>EARTH</CENTER_NAME><REF_FRAME>TEME</REF_FRAME><TIME_SYSTEM>UTC</TIME_SYSTEM><MEAN_ELEMENT_THEORY>SGP4</MEAN_ELEMENT_THEORY></metadata><data><meanElements><EPOCH>2024-10-17T17:06:25.299648</EPOCH><MEAN_MOTION>13.18688770</MEAN_MOTION><ECCENTRICITY>.0001825</ECCENTRICITY><INCLINATION>87.9057</INCLINATION><RA_OF_ASC_NODE>96.3603</RA_OF_ASC_NODE><ARG_OF_PERICENTER>106.6886</ARG_OF_PERICENTER><MEAN_ANOMALY>253.4446</MEAN_ANOMALY></meanElements><tleParameters><EPHEMERIS_TYPE>0</EPHEMERIS_TYPE><CLASSIFICATION_TYPE>U</CLASSIFICATION_TYPE><NORAD_CAT_ID>50489</NORAD_CAT_ID><ELEMENT_SET_NO>999</ELEMENT_SET_NO><REV_AT_EPOCH>14159</REV_AT_EPOCH><BSTAR>.21943E-3</BSTAR><MEAN_MOTION_DOT>.99E-6</MEAN_MOTION_DOT><MEAN_MOTION_DDOT>0</MEAN_MOTION_DDOT></tleParameters></data></segment></body></omm>
<omm id="CCSDS_OMM_VERS" version="2.0">
<header><CREATION_DATE/><ORIGINATOR/></header><body><segment><metadata><OBJECT_NAME>ONEWEB-0413</OBJECT_NAME><OBJECT_ID>2021-132X</OBJECT_ID><CENTER_NAME>EARTH</CENTER_NAME><REF_FRAME>TEME</REF_FRAME><TIME_SYSTEM>UTC</TIME_SYSTEM><MEAN_ELEMENT_THEORY>SGP4</MEAN_ELEMENT_THEORY></metadata><data><meanElements><EPOCH>2024-10-17T17:13:15.321216</EPOCH><MEAN_MOTION>13.18687906</MEAN_MOTION><ECCENTRICITY>.000192</ECCENTRICITY><INCLINATION>87.9057</INCLINATION><RA_OF_ASC_NODE>96.3719</RA_OF_ASC_NODE><ARG_OF_PERICENTER>100.9419</ARG_OF_PERICENTER><MEAN_ANOMALY>259.1930</MEAN_ANOMALY></meanElements><tleParameters><EPHEMERIS_TYPE>0</EPHEMERIS_TYPE><CLASSIFICATION_TYPE>U</CLASSIFICATION_TYPE><NORAD_CAT_ID>50490</NORAD_CAT_ID><ELEMENT_SET_NO>999</ELEMENT_SET_NO><REV_AT_EPOCH>14153</REV_AT_EPOCH><BSTAR>.23836E-3</BSTAR><MEAN_MOTION_DOT>.107E-5</MEAN_MOTION_DOT><MEAN_MOTION_DDOT>0</MEAN_MOTION_DDOT></tleParameters></data></segment></body></omm>

</ndm>
