ONEWEB-0403             
1 50483U 21132Q   24292.48422334  .00000097  00000+0  21339-3 0  9994
2 50483  87.9053  96.2001 0001454  91.7020 268.4279 13.18688532142915
ONEWEB-0404             
1 50484U 21132R   24292.08549002 -.00000421  00000+0 -12223-2 0  9997
2 50484  87.8916 142.0074 0001141  80.4326 279.6931 13.11420125137390
ONEWEB-0405             
1 50485U 21132S   24292.42413151  .00000120  00000+0  27224-3 0  9993
2 50485  87.9055  96.2022 0001730 105.2012 254.9311 13.18688460143313
ONEWEB-0406             
1 50486U 21132T   24291.73018670  .00000060  00000+0  11887-3 0  9995
2 50486  87.9057  96.3552 0001166  68.9931 291.1325 13.18687773141562
ONEWEB-0407             
1 50487U 21132U   24291.72385411  .00000053  00000+0  10102-3 0  9996
2 50487  87.9053  96.3527 0001583  98.6597 261.4714 13.18687518141505
ONEWEB-0409             
1 50488U 21132V   24292.31268928 -.00000469  00000+0 -13587-2 0  9998
2 50488  87.8910 141.9479 0001376  70.4426 289.6850 13.11417679137329
ONEWEB-0412             
1 50489U 21132W   24291.71279282  .00000099  00000+0  21943-3 0  9990
2 50489  87.9057  96.3603 0001825 106.6886 253.4446 13.18688770141599
ONEWEB-0413             
1 50490U 21132X   24291.71753844  .00000107  00000+0  23836-3 0  9996
2 50490  87.9057  96.3719 0001920 100.9419 259.1930 13.18687906141539
